{"type": "FeatureCollection", "features": [ {"type": "Feature", "properties": {"norad_id": 29782, "name": "FENGYUN 1C DEB", "group": "fengyun-1c-debris", "lat": -26.427659943212536, "lon": 40.922602567466505, "alt_km": 878.9905475337846, "timestamp": "2025-12-08T19:31:49.081140+00:00", "meta": {"OBJECT_NAME": "FENGYUN 1C DEB", "OBJECT_ID": "1999-025BY", "EPOCH": "2025-12-08T02:54:24.653088", "MEAN_MOTION": 14.116287, "ECCENTRICITY": 0.00552671, "INCLINATION": 99.0997, "RA_OF_ASC_NODE": 35.6517, "ARG_OF_PERICENTER": 215.6496, "MEAN_ANOMALY": 199.1337, "EPHEMERIS_TYPE": 0, "CLASSIFICATION_TYPE": "U", "NORAD_CAT_ID": 29782, "ELEMENT_SET_NO": 999, "REV_AT_EPOCH": 96606, "BSTAR": 0.0018612517, "MEAN_MOTION_DOT": 3.388e-05, "MEAN_MOTION_DDOT": 0}, "tle": {"line1": "1 29782U 99025BY  25342.12111867  .00003388  00000+0  18613-2 0  9998", "line2": "2 29782  99.0997  35.6517 0055267 215.6496 199.1337 14.11628700966068"}}, "geometry": {"type": "Point", "coordinates": [40.922602567466505, -26.427659943212536]}}, {"type": "Feature", "properties": {"norad_id": 29784, "name": "FENGYUN 1C DEB", "group": "fengyun-1c-debris", "lat": -37.27939033175848, "lon": 74.61295963713147, "alt_km": 796.8661735718551, "timestamp": "2025-12-08T19:31:49.081149+00:00", "meta": {"OBJECT_NAME": "FENGYUN 1C DEB", "OBJECT_ID": "1999-025CA", "EPOCH": "2025-12-08T07:19:03.353952", "MEAN_MOTION": 14.30564016, "ECCENTRICITY": 0.00596445, "INCLINATION": 98.9451, "RA_OF_ASC_NODE": 260.9759, "ARG_OF_PERICENTER": 310.4802, "MEAN_ANOMALY": 168.7436, "EPHEMERIS_TYPE": 0, "CLASSIFICATION_TYPE": "U", "NORAD_CAT_ID": 29784, "ELEMENT_SET_NO": 999, "REV_AT_EPOCH": 98296, "BSTAR": 0.0010354719, "MEAN_MOTION_DOT": 2.707e-05, "MEAN_MOTION_DDOT": 0}, "tle": {"line1": "1 29784U 99025CA  25342.30489993  .00002707  00000+0  10355-2 0  9997", "line2": "2 29784  98.9451 260.9759 0059644 310.4802 168.7436 14.30564016982961"}}, "geometry": {"type": "Point", "coordinates": [74.61295963713147, -37.27939033175848]}}, {"type": "Feature", "properties": {"norad_id": 29786, "name": "FENGYUN 1C DEB", "group": "fengyun-1c-debris", "lat": 75.44806175124654, "lon": -143.52631761998524, "alt_km": 902.2653019513491, "timestamp": "2025-12-08T19:31:49.081158+00:00", "meta": {"OBJECT_NAME": "FENGYUN 1C DEB", "OBJECT_ID": "1999-025CC", "EPOCH": "2025-12-08T07:11:29.633856", "MEAN_MOTION": 14.09080368, "ECCENTRICITY": 0.00771603, "INCLINATION": 98.736, "RA_OF_ASC_NODE": 359.6523, "ARG_OF_PERICENTER": 315.7401, "MEAN_ANOMALY": 58.9516, "EPHEMERIS_TYPE": 0, "CLASSIFICATION_TYPE": "U", "NORAD_CAT_ID": 29786, "ELEMENT_SET_NO": 999, "REV_AT_EPOCH": 97098, "BSTAR": 0.0002789242, "MEAN_MOTION_DOT": 4.54e-06, "MEAN_MOTION_DDOT": 0}, "tle": {"line1": "1 29786U 99025CC  25342.29964854  .00000454  00000+0  27892-3 0  9993", "line2": "2 29786  98.7360 359.6523 0077160 315.7401  58.9516 14.09080368970988"}}, "geometry": {"type": "Point", "coordinates": [-143.52631761998524, 75.44806175124654]}}, {"type": "Feature", "properties": {"norad_id": 29788, "name": "FENGYUN 1C DEB", "group": "fengyun-1c-debris", "lat": 22.585122888305115, "lon": -121.88479748778313, "alt_km": 782.3300893953465, "timestamp": "2025-12-08T19:31:49.081168+00:00", "meta": {"OBJECT_NAME": "FENGYUN 1C DEB", "OBJECT_ID": "1999-025CE", "EPOCH": "2025-12-08T05:39:12.595680", "MEAN_MOTION": 14.25918582, "ECCENTRICITY": 0.00429577, "INCLINATION": 98.7839, "RA_OF_ASC_NODE": 53.8483, "ARG_OF_PERICENTER": 201.6559, "MEAN_ANOMALY": 229.2986, "EPHEMERIS_TYPE": 0, "CLASSIFICATION_TYPE": "U", "NORAD_CAT_ID": 29788, "ELEMENT_SET_NO": 999, "REV_AT_EPOCH": 97291, "BSTAR": 0.0022924732, "MEAN_MOTION_DOT": 5.474e-05, "MEAN_MOTION_DDOT": 0}, "tle": {"line1": "1 29788U 99025CE  25342.23556245  .00005474  00000+0  22925-2 0  9998", "line2": "2 29788  98.7839  53.8483 0042957 201.6559 229.2986 14.25918582972917"}}, "geometry": {"type": "Point", "coordinates": [-121.88479748778313, 22.585122888305115]}}, {"type": "Feature", "properties": {"norad_id": 29789, "name": "FENGYUN 1C DEB", "group": "fengyun-1c-debris", "lat": -51.420499747398175, "lon": -26.279071188094868, "alt_km": 936.1797388118703, "timestamp": "2025-12-08T19:31:49.081177+00:00", "meta": {"OBJECT_NAME": "FENGYUN 1C DEB", "OBJECT_ID": "1999-025CF", "EPOCH": "2025-12-08T06:52:47.477568", "MEAN_MOTION": 13.54225251, "ECCENTRICITY": 0.02983679, "INCLINATION": 99.4518, "RA_OF_ASC_NODE": 165.2697, "ARG_OF_PERICENTER": 290.0389, "MEAN_ANOMALY": 256.714, "EPHEMERIS_TYPE": 0, "CLASSIFICATION_TYPE": "U", "NORAD_CAT_ID": 29789, "ELEMENT_SET_NO": 999, "REV_AT_EPOCH": 92927, "BSTAR": 0.0022731909, "MEAN_MOTION_DOT": 2.008e-05, "MEAN_MOTION_DDOT": 0}, "tle": {"line1": "1 29789U 99025CF  25342.28666062  .00002008  00000+0  22732-2 0  9999", "line2": "2 29789  99.4518 165.2697 0298367 290.0389 256.7140 13.54225251929279"}}, "geometry": {"type": "Point", "coordinates": [-26.279071188094868, -51.420499747398175]}}, {"type": "Feature", "properties": {"norad_id": 29790, "name": "FENGYUN 1C DEB", "group": "fengyun-1c-debris", "lat": -16.681660895300023, "lon": -20.60693784042432, "alt_km": 838.5579650891268, "timestamp": "2025-12-08T19:31:49.081187+00:00", "meta": {"OBJECT_NAME": "FENGYUN 1C DEB", "OBJECT_ID": "1999-025CG", "EPOCH": "2025-12-07T23:29:26.115072", "MEAN_MOTION": 14.3225691, "ECCENTRICITY": 0.00762737, "INCLINATION": 99.147, "RA_OF_ASC_NODE": 335.7455, "ARG_OF_PERICENTER": 190.3597, "MEAN_ANOMALY": 169.6017, "EPHEMERIS_TYPE": 0, "CLASSIFICATION_TYPE": "U", "NORAD_CAT_ID": 29790, "ELEMENT_SET_NO": 999, "REV_AT_EPOCH": 98457, "BSTAR": 0.00044089365, "MEAN_MOTION_DOT": 1.179e-05, "MEAN_MOTION_DDOT": 0}, "tle": {"line1": "1 29790U 99025CG  25341.97877448  .00001179  00000+0  44089-3 0  9996", "line2": "2 29790  99.1470 335.7455 0076273 190.3597 169.6017 14.32256910984576"}}, "geometry": {"type": "Point", "coordinates": [-20.60693784042432, -16.681660895300023]}}, {"type": "Feature", "properties": {"norad_id": 29791, "name": "FENGYUN 1C DEB", "group": "fengyun-1c-debris", "lat": -80.31977162851156, "lon": 94.13091817864398, "alt_km": 735.1728329832413, "timestamp": "2025-12-08T19:31:49.081196+00:00", "meta": {"OBJECT_NAME": "FENGYUN 1C DEB", "OBJECT_ID": "1999-025CH", "EPOCH": "2025-12-07T22:49:09.061248", "MEAN_MOTION": 14.5814413, "ECCENTRICITY": 0.00416796, "INCLINATION": 99.0358, "RA_OF_ASC_NODE": 342.0834, "ARG_OF_PERICENTER": 76.1434, "MEAN_ANOMALY": 343.1084, "EPHEMERIS_TYPE": 0, "CLASSIFICATION_TYPE": "U", "NORAD_CAT_ID": 29791, "ELEMENT_SET_NO": 999, "REV_AT_EPOCH": 98776, "BSTAR": 0.0020371296, "MEAN_MOTION_DOT": 9.458e-05, "MEAN_MOTION_DDOT": 0}, "tle": {"line1": "1 29791U 99025CH  25341.95079932  .00009458  00000+0  20371-2 0  9992", "line2": "2 29791  99.0358 342.0834 0041679  76.1434 343.1084 14.58144130987761"}}, "geometry": {"type": "Point", "coordinates": [94.13091817864398, -80.31977162851156]}}, {"type": "Feature", "properties": {"norad_id": 29792, "name": "FENGYUN 1C DEB", "group": "fengyun-1c-debris", "lat": 4.58408774659612, "lon": -145.8426717981068, "alt_km": 865.2319225604551, "timestamp": "2025-12-08T19:31:49.081206+00:00", "meta": {"OBJECT_NAME": "FENGYUN 1C DEB", "OBJECT_ID": "1999-025CJ", "EPOCH": "2025-12-08T03:26:11.818176", "MEAN_MOTION": 14.1512079, "ECCENTRICITY": 0.00482407, "INCLINATION": 98.7568, "RA_OF_ASC_NODE": 32.7911, "ARG_OF_PERICENTER": 49.747, "MEAN_ANOMALY": 310.7907, "EPHEMERIS_TYPE": 0, "CLASSIFICATION_TYPE": "U", "NORAD_CAT_ID": 29792, "ELEMENT_SET_NO": 999, "REV_AT_EPOCH": 96874, "BSTAR": 0.0017607226, "MEAN_MOTION_DOT": 3.412e-05, "MEAN_MOTION_DDOT": 0}, "tle": {"line1": "1 29792U 99025CJ  25342.14319234  .00003412  00000+0  17607-2 0  9999", "line2": "2 29792  98.7568  32.7911 0048240  49.7470 310.7907 14.15120790968747"}}, "geometry": {"type": "Point", "coordinates": [-145.8426717981068, 4.58408774659612]}}, {"type": "Feature", "properties": {"norad_id": 29793, "name": "FENGYUN 1C DEB", "group": "fengyun-1c-debris", "lat": -7.037308616967055, "lon": 162.9591954110815, "alt_km": 789.4843382964928, "timestamp": "2025-12-08T19:31:49.081215+00:00", "meta": {"OBJECT_NAME": "FENGYUN 1C DEB", "OBJECT_ID": "1999-025CK", "EPOCH": "2025-12-08T01:19:29.838144", "MEAN_MOTION": 14.01055971, "ECCENTRICITY": 0.01439159, "INCLINATION": 98.3548, "RA_OF_ASC_NODE": 161.2253, "ARG_OF_PERICENTER": 351.5293, "MEAN_ANOMALY": 137.5024, "EPHEMERIS_TYPE": 0, "CLASSIFICATION_TYPE": "U", "NORAD_CAT_ID": 29793, "ELEMENT_SET_NO": 999, "REV_AT_EPOCH": 96083, "BSTAR": 0.0012926056, "MEAN_MOTION_DOT": 2.082e-05, "MEAN_MOTION_DDOT": 0}, "tle": {"line1": "1 29793U 99025CK  25342.05520646  .00002082  00000+0  12926-2 0  9992", "line2": "2 29793  98.3548 161.2253 0143915 351.5293 137.5024 14.01055971960831"}}, "geometry": {"type": "Point", "coordinates": [162.9591954110815, -7.037308616967055]}}, {"type": "Feature", "properties": {"norad_id": 29794, "name": "FENGYUN 1C DEB", "group": "fengyun-1c-debris", "lat": -11.487791946122178, "lon": -39.88011316462454, "alt_km": 953.3079367907148, "timestamp": "2025-12-08T19:31:49.081224+00:00", "meta": {"OBJECT_NAME": "FENGYUN 1C DEB", "OBJECT_ID": "1999-025CL", "EPOCH": "2025-12-08T05:49:05.045664", "MEAN_MOTION": 14.08984514, "ECCENTRICITY": 0.01572867, "INCLINATION": 98.1995, "RA_OF_ASC_NODE": 141.2788, "ARG_OF_PERICENTER": 53.385, "MEAN_ANOMALY": 120.5217, "EPHEMERIS_TYPE": 0, "CLASSIFICATION_TYPE": "U", "NORAD_CAT_ID": 29794, "ELEMENT_SET_NO": 999, "REV_AT_EPOCH": 96784, "BSTAR": 0.00089122576, "MEAN_MOTION_DOT": 1.692e-05, "MEAN_MOTION_DDOT": 0}, "tle": {"line1": "1 29794U 99025CL  25342.24241951  .00001692  00000+0  89123-3 0  9993", "line2": "2 29794  98.1995 141.2788 0157286  53.3850 120.5217 14.08984514967844"}}, "geometry": {"type": "Point", "coordinates": [-39.88011316462454, -11.487791946122178]}}]}